{
  "type": "FeatureCollection",
  "features": [
    {
      "type": "Feature",
      "properties": {
        "name_en": "Republic of India",
        "name_hi": "भारतीय गणराज्य"
      },
      "geometry": {
        "type": "MultiPolygon",
        "coordinates": [
          [
            [
              [68.1766451354, 37.0200070257],
              [73.7499483581, 37.1330309108],
              [76.1928481550, 35.8984034284],
              [77.8374507995, 35.4940095078],
              [78.9122683280, 34.3219363460],
              [80.4767212252, 34.8978877327],
              [81.9864506840, 30.1834809433],
              [83.3362121640, 27.3645057236],
              [88.0844222351, 27.8660388210],
              [91.6966575660, 27.7717418780],
              [95.4048022806, 28.8377134046],
              [97.3622536640, 27.6990589465],
              [97.1339990580, 23.8507408713],
              [94.1067419778, 23.6243464214],
              [92.6727209818, 19.7418413747],
              [90.3732747740, 22.1966910820],
              [87.3608168000, 21.6681483070],
              [85.0600136098, 19.4785788029],
              [82.1913198400, 17.0147899710],
              [79.0993755158, 13.9026804803],
              [77.9472214030, 11.0410062892],
              [76.1300614766, 8.8992762318],
              [74.8377572321, 6.4626994712],
              [72.6305334812, 7.0928119393],
              [71.1752734719, 6.9051396017],
              [68.1766451354, 8.5242860489],
              [68.1766451354, 37.0200070257]
            ]
          ],
          [
            [
              [72.0000000000, 13.5000000000],
              [73.9000000000, 13.5000000000],
              [73.9000000000, 10.5000000000],
              [72.0000000000, 10.5000000000],
              [72.0000000000, 13.5000000000]
            ]
          ],
          [
            [
              [92.1460000000, 13.8000000000],
              [93.8380000000, 13.8000000000],
              [93.8380000000, 6.7500000000],
              [92.1460000000, 6.7500000000],
              [92.1460000000, 13.8000000000]
            ]
          ]
        ]
      }
    }
  ]
}
